*******************************************************************************
 Revised: Jun 17, 2016            Rhea  / (Saturn)                          605
                        http://ssd.jpl.nasa.gov/?sat_phys_par
                         http://ssd.jpl.nasa.gov/?sat_elem

 SATELLITE PHYSICAL PROPERTIES:
  Mean Radius (km)        = 764.5  +- 2     Density (g/cm^3)  =  1.233 +- 0.010
  Mass (10^22 g)          = 230.9           Geometric Albedo  =  0.6
  GM (km^3/s^2)           = 153.94 +- 0.16  V(1,0)            = +0.1

 SATELLITE ORBITAL DATA (mean values referred to local Laplace plane):
  Semi-major axis, a (km) = 527.07(10^3)    Orbital period    = 4.518 d
  Eccentricity, e         = 0.001           Rotational period = Synchronous
  Inclination, i  (deg)   = 0.331
*******************************************************************************
 
 
*******************************************************************************
Ephemeris / WWW_USER Mon Jan 23 08:08:29 2017 Pasadena, USA      / Horizons    
*******************************************************************************
Target body name: Rhea (605)                      {source: sat389}
Center body name: Saturn (699)                    {source: sat389}
Center-site name: BODYCENTRIC
*******************************************************************************
Start time      : A.D. 2016-Nov-01 00:00:00.0000 UT      
Stop  time      : A.D. 2016-Dec-01 00:00:00.0000 UT      
Step-size       : 60 minutes
*******************************************************************************
Target pole/equ : IAU_RHEA                        {East-longitude -}
Target radii    : 765.0 x 763.1 x 762.4 km        {Equator, meridian, pole}    
Center geodetic : 0.00000000,0.00000000,0.0000000 {E-lon(deg),Lat(deg),Alt(km)}
Center cylindric: 0.00000000,0.00000000,0.0000000 {E-lon(deg),Dxy(km),Dz(km)}
Center pole/equ : IAU_SATURN                      {East-longitude -}
Center radii    : 60268.0 x 60268.0 x 54364.0 km  {Equator, meridian, pole}    
Target primary  : Saturn
Vis. interferer : TITAN (R_eq= 2575.150) km       {source: sat389}
Rel. light bend : Sun, SATURN                     {source: sat389}
Rel. lght bnd GM: 1.3271E+11, 3.7931E+07 km^3/s^2                              
Atmos refraction: NO (AIRLESS)
RA format       : DEG
Time format     : CAL 
EOP file        : eop.170120.p170413                                           
EOP coverage    : DATA-BASED 1962-JAN-20 TO 2017-JAN-20. PREDICTS-> 2017-APR-12
Units conversion: 1 au= 149597870.700 km, c= 299792.458 km/s, 1 day= 86400.0 s 
Table cut-offs 1: Elevation (-90.0deg=NO ),Airmass     n.a.    , Daylight (NO )
Table cut-offs 2: Solar Elongation (  0.0,180.0=NO ),Local Hour Angle( 0.0=NO )
Table format    : Comma Separated Values (spreadsheet)
*******************************************************************************
 Date__(UT)__HR:MN:SS, , ,   ObsEcLon,   ObsEcLat,
**************************************************
$$SOE
 2016-Nov-01 00:00:00, , ,193.3810965, 11.8258302,
 2016-Nov-01 01:00:00, , ,196.4613513, 13.2259608,
 2016-Nov-01 02:00:00, , ,199.5768587, 14.5888619,
 2016-Nov-01 03:00:00, , ,202.7307382, 15.9100365,
 2016-Nov-01 04:00:00, , ,205.9257787, 17.1849252,
 2016-Nov-01 05:00:00, , ,209.1643797, 18.4089173,
 2016-Nov-01 06:00:00, , ,212.4484867, 19.5773671,
 2016-Nov-01 07:00:00, , ,215.7795258, 20.6856173,
 2016-Nov-01 08:00:00, , ,219.1583359, 21.7290280,
 2016-Nov-01 09:00:00, , ,222.5851045, 22.7030138,
 2016-Nov-01 10:00:00, , ,226.0593079, 23.6030859,
 2016-Nov-01 11:00:00, , ,229.5796623, 24.4249023,
 2016-Nov-01 12:00:00, , ,233.1440878, 25.1643220,
 2016-Nov-01 13:00:00, , ,236.7496917, 25.8174650,
 2016-Nov-01 14:00:00, , ,240.3927741, 26.3807733,
 2016-Nov-01 15:00:00, , ,244.0688597, 26.8510732,
 2016-Nov-01 16:00:00, , ,247.7727580, 27.2256355,
 2016-Nov-01 17:00:00, , ,251.4986515, 27.5022301,
 2016-Nov-01 18:00:00, , ,255.2402119, 27.6791737,
 2016-Nov-01 19:00:00, , ,258.9907392, 27.7553669,
 2016-Nov-01 20:00:00, , ,262.7433185, 27.7303196,
 2016-Nov-01 21:00:00, , ,266.4909878, 27.6041620,
 2016-Nov-01 22:00:00, , ,270.2269082, 27.3776417,
 2016-Nov-01 23:00:00, , ,273.9445272, 27.0521068,
 2016-Nov-02 00:00:00, , ,277.6377292, 26.6294754,
 2016-Nov-02 01:00:00, , ,281.3009646, 26.1121939,
 2016-Nov-02 02:00:00, , ,284.9293543, 25.5031862,
 2016-Nov-02 03:00:00, , ,288.5187654, 24.8057967,
 2016-Nov-02 04:00:00, , ,292.0658587, 24.0237288,
 2016-Nov-02 05:00:00, , ,295.5681086, 23.1609836,
 2016-Nov-02 06:00:00, , ,299.0237983, 22.2217984,
 2016-Nov-02 07:00:00, , ,302.4319940, 21.2105902,
 2016-Nov-02 08:00:00, , ,305.7925026, 20.1319025,
 2016-Nov-02 09:00:00, , ,309.1058170, 18.9903590,
 2016-Nov-02 10:00:00, , ,312.3730548, 17.7906236,
 2016-Nov-02 11:00:00, , ,315.5958908, 16.5373670,
 2016-Nov-02 12:00:00, , ,318.7764913, 15.2352403,
 2016-Nov-02 13:00:00, , ,321.9174475, 13.8888547,
 2016-Nov-02 14:00:00, , ,325.0217147, 12.5027672,
 2016-Nov-02 15:00:00, , ,328.0925543, 11.0814717,
 2016-Nov-02 16:00:00, , ,331.1334826,  9.6293946,
 2016-Nov-02 17:00:00, , ,334.1482243,  8.1508948,
 2016-Nov-02 18:00:00, , ,337.1406721,  6.6502665,
 2016-Nov-02 19:00:00, , ,340.1148507,  5.1317453,
 2016-Nov-02 20:00:00, , ,343.0748864,  3.5995164,
 2016-Nov-02 21:00:00, , ,346.0249792,  2.0577247,
 2016-Nov-02 22:00:00, , ,348.9693789,  0.5104859,
 2016-Nov-02 23:00:00, , ,351.9123629, -1.0381012,
 2016-Nov-03 00:00:00, , ,354.8582153, -2.5839418,
 2016-Nov-03 01:00:00, , ,357.8112060, -4.1229328,
 2016-Nov-03 02:00:00, , ,  0.7755697, -5.6509495,
 2016-Nov-03 03:00:00, , ,  3.7554832, -7.1638344,
 2016-Nov-03 04:00:00, , ,  6.7550398, -8.6573856,
 2016-Nov-03 05:00:00, , ,  9.7782213,-10.1273482,
 2016-Nov-03 06:00:00, , , 12.8288654,-11.5694062,
 2016-Nov-03 07:00:00, , , 15.9106282,-12.9791777,
 2016-Nov-03 08:00:00, , , 19.0269412,-14.3522127,
 2016-Nov-03 09:00:00, , , 22.1809639,-15.6839949,
 2016-Nov-03 10:00:00, , , 25.3755295,-16.9699476,
 2016-Nov-03 11:00:00, , , 28.6130864,-18.2054441,
 2016-Nov-03 12:00:00, , , 31.8956349,-19.3858247,
 2016-Nov-03 13:00:00, , , 35.2246609,-20.5064187,
 2016-Nov-03 14:00:00, , , 38.6010693,-21.5625732,
 2016-Nov-03 15:00:00, , , 42.0251185,-22.5496893,
 2016-Nov-03 16:00:00, , , 45.4963610,-23.4632640,
 2016-Nov-03 17:00:00, , , 49.0135928,-24.2989394,
 2016-Nov-03 18:00:00, , , 52.5748163,-25.0525566,
 2016-Nov-03 19:00:00, , , 56.1772219,-25.7202148,
 2016-Nov-03 20:00:00, , , 59.8171914,-26.2983324,
 2016-Nov-03 21:00:00, , , 63.4903271,-26.7837087,
 2016-Nov-03 22:00:00, , , 67.1915096,-27.1735840,
 2016-Nov-03 23:00:00, , , 70.9149835,-27.4656947,
 2016-Nov-04 00:00:00, , , 74.6544706,-27.6583207,
 2016-Nov-04 01:00:00, , , 78.4033073,-27.7503237,
 2016-Nov-04 02:00:00, , , 82.1545997,-27.7411723,
 2016-Nov-04 03:00:00, , , 85.9013904,-27.6309547,
 2016-Nov-04 04:00:00, , , 89.6368286,-27.4203760,
 2016-Nov-04 05:00:00, , , 93.3543341,-27.1107422,
 2016-Nov-04 06:00:00, , , 97.0477488,-26.7039304,
 2016-Nov-04 07:00:00, , ,100.7114682,-26.2023477,
 2016-Nov-04 08:00:00, , ,104.3405475,-25.6088808,
 2016-Nov-04 09:00:00, , ,107.9307808,-24.9268392,
 2016-Nov-04 10:00:00, , ,111.4787502,-24.1598940,
 2016-Nov-04 11:00:00, , ,114.9818489,-23.3120159,
 2016-Nov-04 12:00:00, , ,118.4382782,-22.3874142,
 2016-Nov-04 13:00:00, , ,121.8470240,-21.3904790,
 2016-Nov-04 14:00:00, , ,125.2078155,-20.3257285,
 2016-Nov-04 15:00:00, , ,128.5210723,-19.1977613,
 2016-Nov-04 16:00:00, , ,131.7878429,-18.0112162,
 2016-Nov-04 17:00:00, , ,135.0097388,-16.7707385,
 2016-Nov-04 18:00:00, , ,138.1888677,-15.4809525,
 2016-Nov-04 19:00:00, , ,141.3277679,-14.1464410,
 2016-Nov-04 20:00:00, , ,144.4293464,-12.7717308,
 2016-Nov-04 21:00:00, , ,147.4968215,-11.3612830,
 2016-Nov-04 22:00:00, , ,150.5336702, -9.9194888,
 2016-Nov-04 23:00:00, , ,153.5435823, -8.4506688,
 2016-Nov-05 00:00:00, , ,156.5304189, -6.9590763,
 2016-Nov-05 01:00:00, , ,159.4981769, -5.4489027,
 2016-Nov-05 02:00:00, , ,162.4509579, -3.9242861,
 2016-Nov-05 03:00:00, , ,165.3929407, -2.3893211,
 2016-Nov-05 04:00:00, , ,168.3283575, -0.8480705,
 2016-Nov-05 05:00:00, , ,171.2614720,  0.6954228,
 2016-Nov-05 06:00:00, , ,174.1965589,  2.2371224,
 2016-Nov-05 07:00:00, , ,177.1378844,  3.7729856,
 2016-Nov-05 08:00:00, , ,180.0896854,  5.2989503,
 2016-Nov-05 09:00:00, , ,183.0561485,  6.8109227,
 2016-Nov-05 10:00:00, , ,186.0413854,  8.3047657,
 2016-Nov-05 11:00:00, , ,189.0494065,  9.7762886,
 2016-Nov-05 12:00:00, , ,192.0840898, 11.2212391,
 2016-Nov-05 13:00:00, , ,195.1491455, 12.6352966,
 2016-Nov-05 14:00:00, , ,198.2480758, 14.0140696,
 2016-Nov-05 15:00:00, , ,201.3841285, 15.3530956,
 2016-Nov-05 16:00:00, , ,204.5602453, 16.6478450,
 2016-Nov-05 17:00:00, , ,207.7790042, 17.8937305,
 2016-Nov-05 18:00:00, , ,211.0425583, 19.0861208,
 2016-Nov-05 19:00:00, , ,214.3525700, 20.2203613,
 2016-Nov-05 20:00:00, , ,217.7101442, 21.2918006,
 2016-Nov-05 21:00:00, , ,221.1157615, 22.2958235,
 2016-Nov-05 22:00:00, , ,224.5692166, 23.2278916,
 2016-Nov-05 23:00:00, , ,228.0695635, 24.0835896,
 2016-Nov-06 00:00:00, , ,231.6150731, 24.8586783,
 2016-Nov-06 01:00:00, , ,235.2032078, 25.5491520,
 2016-Nov-06 02:00:00, , ,238.8306162, 26.1512999,
 2016-Nov-06 03:00:00, , ,242.4931535, 26.6617678,
 2016-Nov-06 04:00:00, , ,246.1859291, 27.0776201,
 2016-Nov-06 05:00:00, , ,249.9033822, 27.3963969,
 2016-Nov-06 06:00:00, , ,253.6393869, 27.6161659,
 2016-Nov-06 07:00:00, , ,257.3873811, 27.7355641,
 2016-Nov-06 08:00:00, , ,261.1405175, 27.7538286,
 2016-Nov-06 09:00:00, , ,264.8918270, 27.6708146,
 2016-Nov-06 10:00:00, , ,268.6343894, 27.4869986,
 2016-Nov-06 11:00:00, , ,272.3615007, 27.2034674,
 2016-Nov-06 12:00:00, , ,276.0668309, 26.8218938,
 2016-Nov-06 13:00:00, , ,279.7445624, 26.3444992,
 2016-Nov-06 14:00:00, , ,283.3895065, 25.7740069,
 2016-Nov-06 15:00:00, , ,286.9971919, 25.1135871,
 2016-Nov-06 16:00:00, , ,290.5639242, 24.3667974,
